{"type": "FeatureCollection", "features": [ {"type": "Feature", "properties": {"norad_id": 51444, "name": "CSG-2", "group": "resource", "lat": -18.22610482285809, "lon": -20.416714314080227, "alt_km": 627.9685902536921, "timestamp": "2025-12-06T18:50:09.828680+00:00", "meta": {"OBJECT_NAME": "CSG-2", "OBJECT_ID": "2022-008A", "EPOCH": "2025-12-06T06:36:09.173952", "MEAN_MOTION": 14.82153619, "ECCENTRICITY": 0.00014972, "INCLINATION": 97.8814, "RA_OF_ASC_NODE": 161.6958, "ARG_OF_PERICENTER": 88.7377, "MEAN_ANOMALY": 271.4008, "EPHEMERIS_TYPE": 0, "CLASSIFICATION_TYPE": "U", "NORAD_CAT_ID": 51444, "ELEMENT_SET_NO": 999, "REV_AT_EPOCH": 20801, "BSTAR": 0.00012096698, "MEAN_MOTION_DOT": 9.11e-06, "MEAN_MOTION_DDOT": 0}, "tle": {"line1": "1 51444U 22008A   25340.27510618  .00000911  00000+0  12097-3 0  9996", "line2": "2 51444  97.8814 161.6958 0001497  88.7377 271.4008 14.82153619208017"}}, "geometry": {"type": "Point", "coordinates": [-20.416714314080227, -18.22610482285809]}}, {"type": "Feature", "properties": {"norad_id": 52912, "name": "GAOFEN-12 03", "group": "resource", "lat": 10.117453153609127, "lon": 49.68154752012286, "alt_km": 632.4598900811407, "timestamp": "2025-12-06T18:50:09.828691+00:00", "meta": {"OBJECT_NAME": "GAOFEN-12 03", "OBJECT_ID": "2022-069A", "EPOCH": "2025-12-06T06:42:37.600704", "MEAN_MOTION": 14.79585738, "ECCENTRICITY": 0.00023161, "INCLINATION": 97.849, "RA_OF_ASC_NODE": 227.7776, "ARG_OF_PERICENTER": 73.3611, "MEAN_ANOMALY": 286.7855, "EPHEMERIS_TYPE": 0, "CLASSIFICATION_TYPE": "U", "NORAD_CAT_ID": 52912, "ELEMENT_SET_NO": 999, "REV_AT_EPOCH": 18608, "BSTAR": 0.00032737084, "MEAN_MOTION_DOT": 2.402e-05, "MEAN_MOTION_DDOT": 0}, "tle": {"line1": "1 52912U 22069A   25340.27960186  .00002402  00000+0  32737-3 0  9993", "line2": "2 52912  97.8490 227.7776 0002316  73.3611 286.7855 14.79585738186080"}}, "geometry": {"type": "Point", "coordinates": [49.68154752012286, 10.117453153609127]}}, {"type": "Feature", "properties": {"norad_id": 54754, "name": "SWOT", "group": "resource", "lat": 41.69302787488341, "lon": -53.67942722940875, "alt_km": 889.6214173499638, "timestamp": "2025-12-06T18:50:09.828701+00:00", "meta": {"OBJECT_NAME": "SWOT", "OBJECT_ID": "2022-173A", "EPOCH": "2025-12-06T06:37:38.904672", "MEAN_MOTION": 14.00173228, "ECCENTRICITY": 3.451e-05, "INCLINATION": 77.61, "RA_OF_ASC_NODE": 295.7154, "ARG_OF_PERICENTER": 132.6188, "MEAN_ANOMALY": 227.4993, "EPHEMERIS_TYPE": 0, "CLASSIFICATION_TYPE": "U", "NORAD_CAT_ID": 54754, "ELEMENT_SET_NO": 999, "REV_AT_EPOCH": 15215, "BSTAR": 0.00012003539, "MEAN_MOTION_DOT": 1.74e-06, "MEAN_MOTION_DDOT": 0}, "tle": {"line1": "1 54754U 22173A   25340.27614473  .00000174  00000+0  12004-3 0  9999", "line2": "2 54754  77.6100 295.7154 0000345 132.6188 227.4993 14.00173228152150"}}, "geometry": {"type": "Point", "coordinates": [-53.67942722940875, 41.69302787488341]}}, {"type": "Feature", "properties": {"norad_id": 57654, "name": "GAOFEN-12 04", "group": "resource", "lat": -22.59117526801994, "lon": -100.05053639859086, "alt_km": 635.8445905615172, "timestamp": "2025-12-06T18:50:09.828712+00:00", "meta": {"OBJECT_NAME": "GAOFEN-12 04", "OBJECT_ID": "2023-123A", "EPOCH": "2025-12-06T05:57:18.787968", "MEAN_MOTION": 14.79670954, "ECCENTRICITY": 0.00014278, "INCLINATION": 97.9121, "RA_OF_ASC_NODE": 256.1038, "ARG_OF_PERICENTER": 72.4544, "MEAN_ANOMALY": 287.6824, "EPHEMERIS_TYPE": 0, "CLASSIFICATION_TYPE": "U", "NORAD_CAT_ID": 57654, "ELEMENT_SET_NO": 999, "REV_AT_EPOCH": 12409, "BSTAR": 0.00040047061, "MEAN_MOTION_DOT": 2.955e-05, "MEAN_MOTION_DDOT": 0}, "tle": {"line1": "1 57654U 23123A   25340.24813412  .00002955  00000+0  40047-3 0  9995", "line2": "2 57654  97.9121 256.1038 0001427  72.4544 287.6824 14.79670954124098"}}, "geometry": {"type": "Point", "coordinates": [-100.05053639859086, -22.59117526801994]}}, {"type": "Feature", "properties": {"norad_id": 59065, "name": "PARS 1", "group": "resource", "lat": 35.046109797557, "lon": 136.86783461754814, "alt_km": 436.6128450134993, "timestamp": "2025-12-06T18:50:09.828721+00:00", "meta": {"OBJECT_NAME": "PARS 1", "OBJECT_ID": "2024-039Q", "EPOCH": "2025-12-06T04:11:02.210496", "MEAN_MOTION": 15.40756573, "ECCENTRICITY": 0.00126942, "INCLINATION": 97.4627, "RA_OF_ASC_NODE": 310.9692, "ARG_OF_PERICENTER": 91.5807, "MEAN_ANOMALY": 268.6894, "EPHEMERIS_TYPE": 0, "CLASSIFICATION_TYPE": "U", "NORAD_CAT_ID": 59065, "ELEMENT_SET_NO": 999, "REV_AT_EPOCH": 9887, "BSTAR": 0.0004192432, "MEAN_MOTION_DOT": 0.00017126, "MEAN_MOTION_DDOT": 0}, "tle": {"line1": "1 59065U 24039Q   25340.17433114  .00017126  00000+0  41924-3 0  9990", "line2": "2 59065  97.4627 310.9692 0012694  91.5807 268.6894 15.40756573 98872"}}, "geometry": {"type": "Point", "coordinates": [136.86783461754814, 35.046109797557]}}, {"type": "Feature", "properties": {"norad_id": 59371, "name": "RESURS-P 4", "group": "resource", "lat": 63.527832609777235, "lon": 122.05733421014544, "alt_km": 463.0461927347851, "timestamp": "2025-12-06T18:50:09.828732+00:00", "meta": {"OBJECT_NAME": "RESURS-P 4", "OBJECT_ID": "2024-061A", "EPOCH": "2025-12-06T07:21:39.085632", "MEAN_MOTION": 15.32009714, "ECCENTRICITY": 0.00019642, "INCLINATION": 97.254, "RA_OF_ASC_NODE": 286.7687, "ARG_OF_PERICENTER": 53.3068, "MEAN_ANOMALY": 306.8354, "EPHEMERIS_TYPE": 0, "CLASSIFICATION_TYPE": "U", "NORAD_CAT_ID": 59371, "ELEMENT_SET_NO": 999, "REV_AT_EPOCH": 9422, "BSTAR": 0.00022462461, "MEAN_MOTION_DOT": 6.866e-05, "MEAN_MOTION_DDOT": 0}, "tle": {"line1": "1 59371U 24061A   25340.30670238  .00006866  00000+0  22462-3 0  9995", "line2": "2 59371  97.2540 286.7687 0001964  53.3068 306.8354 15.32009714 94221"}}, "geometry": {"type": "Point", "coordinates": [122.05733421014544, 63.527832609777235]}}, {"type": "Feature", "properties": {"norad_id": 59625, "name": "LEGION 1", "group": "resource", "lat": -45.02211282465103, "lon": 63.07399446379581, "alt_km": 520.8367141169028, "timestamp": "2025-12-06T18:50:09.828742+00:00", "meta": {"OBJECT_NAME": "LEGION 1", "OBJECT_ID": "2024-081A", "EPOCH": "2025-12-06T06:21:59.729760", "MEAN_MOTION": 15.16384708, "ECCENTRICITY": 0.00044405, "INCLINATION": 97.5223, "RA_OF_ASC_NODE": 54.9597, "ARG_OF_PERICENTER": 344.7871, "MEAN_ANOMALY": 15.3227, "EPHEMERIS_TYPE": 0, "CLASSIFICATION_TYPE": "U", "NORAD_CAT_ID": 59625, "ELEMENT_SET_NO": 999, "REV_AT_EPOCH": 8829, "BSTAR": 0.00044459639, "MEAN_MOTION_DOT": 8.571e-05, "MEAN_MOTION_DDOT": 0}, "tle": {"line1": "1 59625U 24081A   25340.26527465  .00008571  00000+0  44460-3 0  9994", "line2": "2 59625  97.5223  54.9597 0004440 344.7871  15.3227 15.16384708 88292"}}, "geometry": {"type": "Point", "coordinates": [63.07399446379581, -45.02211282465103]}}, {"type": "Feature", "properties": {"norad_id": 59626, "name": "LEGION 2", "group": "resource", "lat": 45.31668789248211, "lon": -116.75993674227456, "alt_km": 517.0529598405301, "timestamp": "2025-12-06T18:50:09.828752+00:00", "meta": {"OBJECT_NAME": "LEGION 2", "OBJECT_ID": "2024-081B", "EPOCH": "2025-12-06T05:34:36.831072", "MEAN_MOTION": 15.16394723, "ECCENTRICITY": 0.00060843, "INCLINATION": 97.5225, "RA_OF_ASC_NODE": 55.0139, "ARG_OF_PERICENTER": 320.2219, "MEAN_ANOMALY": 39.8568, "EPHEMERIS_TYPE": 0, "CLASSIFICATION_TYPE": "U", "NORAD_CAT_ID": 59626, "ELEMENT_SET_NO": 999, "REV_AT_EPOCH": 8829, "BSTAR": 0.00048025917, "MEAN_MOTION_DOT": 9.269e-05, "MEAN_MOTION_DDOT": 0}, "tle": {"line1": "1 59626U 24081B   25340.23237073  .00009269  00000+0  48026-3 0  9992", "line2": "2 59626  97.5225  55.0139 0006084 320.2219  39.8568 15.16394723 88297"}}, "geometry": {"type": "Point", "coordinates": [-116.75993674227456, 45.31668789248211]}}, {"type": "Feature", "properties": {"norad_id": 60182, "name": "ALOS-4 (DAICHI-4)", "group": "resource", "lat": -42.179420805136246, "lon": -111.5325813386435, "alt_km": 638.1527568568426, "timestamp": "2025-12-06T18:50:09.828762+00:00", "meta": {"OBJECT_NAME": "ALOS-4 (DAICHI-4)", "OBJECT_ID": "2024-123A", "EPOCH": "2025-12-06T06:28:15.014208", "MEAN_MOTION": 14.79472049, "ECCENTRICITY": 0.00014373, "INCLINATION": 97.9234, "RA_OF_ASC_NODE": 75.2092, "ARG_OF_PERICENTER": 101.5055, "MEAN_ANOMALY": 258.6318, "EPHEMERIS_TYPE": 0, "CLASSIFICATION_TYPE": "U", "NORAD_CAT_ID": 60182, "ELEMENT_SET_NO": 999, "REV_AT_EPOCH": 7735, "BSTAR": 0.0005889489, "MEAN_MOTION_DOT": 4.35e-05, "MEAN_MOTION_DDOT": 0}, "tle": {"line1": "1 60182U 24123A   25340.26961822  .00004350  00000+0  58895-3 0  9998", "line2": "2 60182  97.9234  75.2092 0001437 101.5055 258.6318 14.79472049 77352"}}, "geometry": {"type": "Point", "coordinates": [-111.5325813386435, -42.179420805136246]}}, {"type": "Feature", "properties": {"norad_id": 60452, "name": "LEGION 3", "group": "resource", "lat": 24.73616273555133, "lon": 134.60117471663094, "alt_km": 506.23166941303316, "timestamp": "2025-12-06T18:50:09.828773+00:00", "meta": {"OBJECT_NAME": "LEGION 3", "OBJECT_ID": "2024-146A", "EPOCH": "2025-12-06T07:07:57.142560", "MEAN_MOTION": 15.1565971, "ECCENTRICITY": 0.00141189, "INCLINATION": 45.0027, "RA_OF_ASC_NODE": 344.6672, "ARG_OF_PERICENTER": 162.8437, "MEAN_ANOMALY": 197.2921, "EPHEMERIS_TYPE": 0, "CLASSIFICATION_TYPE": "U", "NORAD_CAT_ID": 60452, "ELEMENT_SET_NO": 999, "REV_AT_EPOCH": 7275, "BSTAR": 0.00049415577, "MEAN_MOTION_DOT": 9.329e-05, "MEAN_MOTION_DDOT": 0}, "tle": {"line1": "1 60452U 24146A   25340.29718915  .00009329  00000+0  49416-3 0  9999", "line2": "2 60452  45.0027 344.6672 0014118 162.8437 197.2921 15.15659710 72757"}}, "geometry": {"type": "Point", "coordinates": [134.60117471663094, 24.73616273555133]}}]}